[{"OBJECT_NAME":"ONEWEB-0151","OBJECT_ID":"2021-025AA","EPOCH":"2026-02-14T06:34:48.562752","MEAN_MOTION":13.13470965,"ECCENTRICITY":0.00017491,"INCLINATION":87.9042,"RA_OF_ASC_NODE":344.6555,"ARG_OF_PERICENTER":83.065,"MEAN_ANOMALY":277.0678,"EPHEMERIS_TYPE":0,"CLASSIFICATION_TYPE":"U","NORAD_CAT_ID":48066,"ELEMENT_SET_NO":999,"REV_AT_EPOCH":23745,"BSTAR":0.0010739047,"MEAN_MOTION_DOT":4.05e-6,"MEAN_MOTION_DDOT":0},{"OBJECT_NAME":"ONEWEB-0170","OBJECT_ID":"2021-025AB","EPOCH":"2026-02-14T06:46:58.766304","MEAN_MOTION":13.13471043,"ECCENTRICITY":0.00013614,"INCLINATION":87.9032,"RA_OF_ASC_NODE":344.6572,"ARG_OF_PERICENTER":88.5959,"MEAN_ANOMALY":271.5326,"EPHEMERIS_TYPE":0,"CLASSIFICATION_TYPE":"U","NORAD_CAT_ID":48067,"ELEMENT_SET_NO":999,"REV_AT_EPOCH":23741,"BSTAR":0.00098376419,"MEAN_MOTION_DOT":3.72e-6,"MEAN_MOTION_DDOT":0},{"OBJECT_NAME":"ONEWEB-0168","OBJECT_ID":"2021-025AC","EPOCH":"2026-02-14T06:25:02.153856","MEAN_MOTION":13.13472382,"ECCENTRICITY":0.00019534,"INCLINATION":87.9049,"RA_OF_ASC_NODE":344.6481,"ARG_OF_PERICENTER":83.2773,"MEAN_ANOMALY":276.8578,"EPHEMERIS_TYPE":0,"CLASSIFICATION_TYPE":"U","NORAD_CAT_ID":48068,"ELEMENT_SET_NO":999,"REV_AT_EPOCH":23742,"BSTAR":0.00079660424,"MEAN_MOTION_DOT":3.04e-6,"MEAN_MOTION_DDOT":0},{"OBJECT_NAME":"ONEWEB-0173","OBJECT_ID":"2021-025AD","EPOCH":"2026-02-14T06:12:52.203456","MEAN_MOTION":13.13470804,"ECCENTRICITY":0.00020394,"INCLINATION":87.9041,"RA_OF_ASC_NODE":344.6579,"ARG_OF_PERICENTER":89.8173,"MEAN_ANOMALY":270.319,"EPHEMERIS_TYPE":0,"CLASSIFICATION_TYPE":"U","NORAD_CAT_ID":48069,"ELEMENT_SET_NO":999,"REV_AT_EPOCH":23766,"BSTAR":0.00031285133,"MEAN_MOTION_DOT":1.27e-6,"MEAN_MOTION_DDOT":0},{"OBJECT_NAME":"ONEWEB-0171","OBJECT_ID":"2021-025AE","EPOCH":"2026-02-14T05:16:47.841888","MEAN_MOTION":13.13470188,"ECCENTRICITY":0.00017533,"INCLINATION":87.9036,"RA_OF_ASC_NODE":344.6795,"ARG_OF_PERICENTER":82.2711,"MEAN_ANOMALY":277.8617,"EPHEMERIS_TYPE":0,"CLASSIFICATION_TYPE":"U","NORAD_CAT_ID":48070,"ELEMENT_SET_NO":999,"REV_AT_EPOCH":23747,"BSTAR":0.00015630776,"MEAN_MOTION_DOT":7.0e-7,"MEAN_MOTION_DDOT":0},{"OBJECT_NAME":"ONEWEB-0172","OBJECT_ID":"2021-025AF","EPOCH":"2026-02-14T06:37:14.399040","MEAN_MOTION":13.13471411,"ECCENTRICITY":0.0001779,"INCLINATION":87.904,"RA_OF_ASC_NODE":344.6552,"ARG_OF_PERICENTER":83.4056,"MEAN_ANOMALY":276.7276,"EPHEMERIS_TYPE":0,"CLASSIFICATION_TYPE":"U","NORAD_CAT_ID":48071,"ELEMENT_SET_NO":999,"REV_AT_EPOCH":23837,"BSTAR":0.00094594067,"MEAN_MOTION_DOT":3.58e-6,"MEAN_MOTION_DDOT":0},{"OBJECT_NAME":"ONEWEB-0174","OBJECT_ID":"2021-025AG","EPOCH":"2026-02-14T06:10:25.546368","MEAN_MOTION":13.13471242,"ECCENTRICITY":0.00019863,"INCLINATION":87.903,"RA_OF_ASC_NODE":344.661,"ARG_OF_PERICENTER":79.2561,"MEAN_ANOMALY":280.8791,"EPHEMERIS_TYPE":0,"CLASSIFICATION_TYPE":"U","NORAD_CAT_ID":48072,"ELEMENT_SET_NO":999,"REV_AT_EPOCH":23769,"BSTAR":0.00013180618,"MEAN_MOTION_DOT":6.1e-7,"MEAN_MOTION_DDOT":0},{"OBJECT_NAME":"ONEWEB-0175","OBJECT_ID":"2021-025AH","EPOCH":"2026-02-14T05:04:36.222240","MEAN_MOTION":13.13471671,"ECCENTRICITY":0.00015617,"INCLINATION":87.9044,"RA_OF_ASC_NODE":344.6433,"ARG_OF_PERICENTER":86.3175,"MEAN_ANOMALY":273.8133,"EPHEMERIS_TYPE":0,"CLASSIFICATION_TYPE":"U","NORAD_CAT_ID":48073,"ELEMENT_SET_NO":999,"REV_AT_EPOCH":23734,"BSTAR":0.00081581888,"MEAN_MOTION_DOT":3.11e-6,"MEAN_MOTION_DDOT":0},{"OBJECT_NAME":"ONEWEB-0177","OBJECT_ID":"2021-025AJ","EPOCH":"2026-02-14T05:21:40.137408","MEAN_MOTION":13.13470693,"ECCENTRICITY":0.00020108,"INCLINATION":87.9048,"RA_OF_ASC_NODE":344.6614,"ARG_OF_PERICENTER":85.673,"MEAN_ANOMALY":274.4629,"EPHEMERIS_TYPE":0,"CLASSIFICATION_TYPE":"U","NORAD_CAT_ID":48074,"ELEMENT_SET_NO":999,"REV_AT_EPOCH":23753,"BSTAR":-0.00014264101,"MEAN_MOTION_DOT":-3.9e-7,"MEAN_MOTION_DDOT":0},{"OBJECT_NAME":"ONEWEB-0178","OBJECT_ID":"2021-025AK","EPOCH":"2026-02-14T05:48:41.288256","MEAN_MOTION":13.13470748,"ECCENTRICITY":0.00017888,"INCLINATION":87.9022,"RA_OF_ASC_NODE":344.6901,"ARG_OF_PERICENTER":87.596,"MEAN_ANOMALY":272.5374,"EPHEMERIS_TYPE":0,"CLASSIFICATION_TYPE":"U","NORAD_CAT_ID":48075,"ELEMENT_SET_NO":999,"REV_AT_EPOCH":23758,"BSTAR":-0.000773007,"MEAN_MOTION_DOT":-2.7e-6,"MEAN_MOTION_DDOT":0},{"OBJECT_NAME":"ONEWEB-0108","OBJECT_ID":"2021-025AL","EPOCH":"2026-02-14T06:39:40.662144","MEAN_MOTION":13.13470868,"ECCENTRICITY":0.00018207,"INCLINATION":87.9046,"RA_OF_ASC_NODE":344.6396,"ARG_OF_PERICENTER":71.949,"MEAN_ANOMALY":288.1837,"EPHEMERIS_TYPE":0,"CLASSIFICATION_TYPE":"U","NORAD_CAT_ID":48076,"ELEMENT_SET_NO":999,"REV_AT_EPOCH":23751,"BSTAR":0.0012115559,"MEAN_MOTION_DOT":4.55e-6,"MEAN_MOTION_DDOT":0},{"OBJECT_NAME":"ONEWEB-0169","OBJECT_ID":"2021-025AM","EPOCH":"2026-02-14T05:36:17.059392","MEAN_MOTION":13.13471809,"ECCENTRICITY":0.00018449,"INCLINATION":87.9037,"RA_OF_ASC_NODE":344.6658,"ARG_OF_PERICENTER":73.0785,"MEAN_ANOMALY":287.0547,"EPHEMERIS_TYPE":0,"CLASSIFICATION_TYPE":"U","NORAD_CAT_ID":48077,"ELEMENT_SET_NO":999,"REV_AT_EPOCH":23616,"BSTAR":-0.00050188031,"MEAN_MOTION_DOT":-1.71e-6,"MEAN_MOTION_DDOT":0},{"OBJECT_NAME":"ONEWEB-0176","OBJECT_ID":"2021-031A","EPOCH":"2026-02-14T05:58:13.124064","MEAN_MOTION":13.1450433,"ECCENTRICITY":0.00016843,"INCLINATION":87.9018,"RA_OF_ASC_NODE":314.2158,"ARG_OF_PERICENTER":81.2335,"MEAN_ANOMALY":278.8985,"EPHEMERIS_TYPE":0,"CLASSIFICATION_TYPE":"U","NORAD_CAT_ID":48210,"ELEMENT_SET_NO":999,"REV_AT_EPOCH":23216,"BSTAR":9.4477173e-5,"MEAN_MOTION_DOT":4.8e-7,"MEAN_MOTION_DDOT":0},{"OBJECT_NAME":"ONEWEB-0184","OBJECT_ID":"2021-031B","EPOCH":"2026-02-14T05:19:23.638368","MEAN_MOTION":13.14504298,"ECCENTRICITY":0.0001405,"INCLINATION":87.9035,"RA_OF_ASC_NODE":314.209,"ARG_OF_PERICENTER":106.3934,"MEAN_ANOMALY":253.7351,"EPHEMERIS_TYPE":0,"CLASSIFICATION_TYPE":"U","NORAD_CAT_ID":48211,"ELEMENT_SET_NO":999,"REV_AT_EPOCH":23213,"BSTAR":-0.00029908532,"MEAN_MOTION_DOT":-9.8e-7,"MEAN_MOTION_DDOT":0},{"OBJECT_NAME":"ONEWEB-0179","OBJECT_ID":"2021-031C","EPOCH":"2026-02-14T06:26:45.592800","MEAN_MOTION":13.14504594,"ECCENTRICITY":0.00019636,"INCLINATION":87.9025,"RA_OF_ASC_NODE":314.2042,"ARG_OF_PERICENTER":78.7072,"MEAN_ANOMALY":281.4279,"EPHEMERIS_TYPE":0,"CLASSIFICATION_TYPE":"U","NORAD_CAT_ID":48212,"ELEMENT_SET_NO":999,"REV_AT_EPOCH":23218,"BSTAR":0.0005632973,"MEAN_MOTION_DOT":2.22e-6,"MEAN_MOTION_DDOT":0},{"OBJECT_NAME":"ONEWEB-0180","OBJECT_ID":"2021-031D","EPOCH":"2026-02-14T05:23:57.858144","MEAN_MOTION":13.14504372,"ECCENTRICITY":0.00018902,"INCLINATION":87.9031,"RA_OF_ASC_NODE":314.2131,"ARG_OF_PERICENTER":86.8522,"MEAN_ANOMALY":273.2824,"EPHEMERIS_TYPE":0,"CLASSIFICATION_TYPE":"U","NORAD_CAT_ID":48213,"ELEMENT_SET_NO":999,"REV_AT_EPOCH":23206,"BSTAR":-0.00031706683,"MEAN_MOTION_DOT":-1.05e-6,"MEAN_MOTION_DDOT":0}]
