ONEWEB-0151             
1 48066U 21025AA  26045.27417318  .00000405  00000+0  10739-2 0  9994
2 48066  87.9042 344.6555 0001749  83.0650 277.0678 13.13470965237458
ONEWEB-0170             
1 48067U 21025AB  26045.28262461  .00000372  00000+0  98376-3 0  9990
2 48067  87.9032 344.6572 0001361  88.5959 271.5326 13.13471043237412
ONEWEB-0168             
1 48068U 21025AC  26045.26738604  .00000304  00000+0  79660-3 0  9996
2 48068  87.9049 344.6481 0001953  83.2773 276.8578 13.13472382237428
ONEWEB-0173             
1 48069U 21025AD  26045.25893754  .00000127  00000+0  31285-3 0  9998
2 48069  87.9041 344.6579 0002039  89.8173 270.3190 13.13470804237663
ONEWEB-0171             
1 48070U 21025AE  26045.21999817  .00000070  00000+0  15631-3 0  9997
2 48070  87.9036 344.6795 0001753  82.2711 277.8617 13.13470188237476
ONEWEB-0172             
1 48071U 21025AF  26045.27586110  .00000358  00000+0  94594-3 0  9996
2 48071  87.9040 344.6552 0001779  83.4056 276.7276 13.13471411238375
ONEWEB-0174             
1 48072U 21025AG  26045.25724012  .00000061  00000+0  13181-3 0  9994
2 48072  87.9030 344.6610 0001986  79.2561 280.8791 13.13471242237698
ONEWEB-0175             
1 48073U 21025AH  26045.21153035  .00000311  00000+0  81582-3 0  9990
2 48073  87.9044 344.6433 0001561  86.3175 273.8133 13.13471671237346
ONEWEB-0177             
1 48074U 21025AJ  26045.22338122 -.00000039  00000+0 -14264-3 0  9996
2 48074  87.9048 344.6614 0002010  85.6730 274.4629 13.13470693237532
ONEWEB-0178             
1 48075U 21025AK  26045.24214454 -.00000270  00000+0 -77301-3 0  9998
2 48075  87.9022 344.6901 0001788  87.5960 272.5374 13.13470748237583
ONEWEB-0108             
1 48076U 21025AL  26045.27755396  .00000455  00000+0  12116-2 0  9992
2 48076  87.9046 344.6396 0001820  71.9490 288.1837 13.13470868237513
ONEWEB-0169             
1 48077U 21025AM  26045.23353078 -.00000171  00000+0 -50188-3 0  9999
2 48077  87.9037 344.6658 0001844  73.0785 287.0547 13.13471809236163
ONEWEB-0176             
1 48210U 21031A   26045.24876301  .00000048  00000+0  94477-4 0  9996
2 48210  87.9018 314.2158 0001684  81.2335 278.8985 13.14504330232160
ONEWEB-0184             
1 48211U 21031B   26045.22180137 -.00000098  00000+0 -29909-3 0  9994
2 48211  87.9035 314.2090 0001405 106.3934 253.7351 13.14504298232139
ONEWEB-0179             
1 48212U 21031C   26045.26858325  .00000222  00000+0  56330-3 0  9995
2 48212  87.9025 314.2042 0001963  78.7072 281.4279 13.14504594232181
ONEWEB-0180             
1 48213U 21031D   26045.22497521 -.00000105  00000+0 -31707-3 0  9992
2 48213  87.9031 314.2131 0001890  86.8522 273.2824 13.14504372232063
